STARLINK-2022           
1 47643U 21012Z   23341.45366319  .00001140  00000+0  95445-4 0  9996
2 47643  53.0533 147.2695 0001149  93.0751 267.0369 15.06390096155664
